{
    "links": {
        "self": "http://www.neowsapp.com/rest/v1/neo/3433363?api_key=iIulBulltgU6a56xZRHN4H3l9WmuAYTsLGpBGhQ2"
    },
    "id": "3433363",
    "neo_reference_id": "3433363",
    "name": "(2008 UC7)",
    "designation": "2008 UC7",
    "nasa_jpl_url": "http://ssd.jpl.nasa.gov/sbdb.cgi?sstr=3433363",
    "absolute_magnitude_h": 27.0,
    "estimated_diameter": {
        "kilometers": {
            "estimated_diameter_min": 0.0105816886,
            "estimated_diameter_max": 0.023661375
        },
        "meters": {
            "estimated_diameter_min": 10.5816885933,
            "estimated_diameter_max": 23.6613750114
        },
        "miles": {
            "estimated_diameter_min": 0.0065751544,
            "estimated_diameter_max": 0.0147024923
        },
        "feet": {
            "estimated_diameter_min": 34.7168272045,
            "estimated_diameter_max": 77.6291855923
        }
    },
    "is_potentially_hazardous_asteroid": false,
    "close_approach_data": [
        {
            "close_approach_date": "1939-04-24",
            "close_approach_date_full": "1939-Apr-24 13:06",
            "epoch_date_close_approach": -968496840000,
            "relative_velocity": {
                "kilometers_per_second": "17.714596713",
                "kilometers_per_hour": "63772.548166786",
                "miles_per_hour": "39625.781387301"
            },
            "miss_distance": {
                "astronomical": "0.1835051548",
                "lunar": "71.3835052172",
                "kilometers": "27451980.292100276",
                "miles": "17057869.5695887688"
            },
            "orbiting_body": "Earth"
        },
        {
            "close_approach_date": "2005-08-23",
            "close_approach_date_full": "2005-Aug-23 13:27",
            "epoch_date_close_approach": 1124803620000,
            "relative_velocity": {
                "kilometers_per_second": "12.0414447839",
                "kilometers_per_hour": "43349.201222045",
                "miles_per_hour": "26935.507837109"
            },
            "miss_distance": {
                "astronomical": "0.0285876008",
                "lunar": "11.1205767112",
                "kilometers": "4276644.188090296",
                "miles": "2657383.4739702448"
            },
            "orbiting_body": "Mars"
        },
        {
            "close_approach_date": "2008-11-02",
            "close_approach_date_full": "2008-Nov-02 16:41",
            "epoch_date_close_approach": 1225644060000,
            "relative_velocity": {
                "kilometers_per_second": "12.3060219235",
                "kilometers_per_hour": "44301.6789247228",
                "miles_per_hour": "27527.3404407534"
            },
            "miss_distance": {
                "astronomical": "0.0114925927",
                "lunar": "4.4706185603",
                "kilometers": "1719267.388697549",
                "miles": "1068303.2174582162"
            },
            "orbiting_body": "Earth"
        },
        {
            "close_approach_date": "2027-05-04",
            "close_approach_date_full": "2027-May-04 10:37",
            "epoch_date_close_approach": 1809427020000,
            "relative_velocity": {
                "kilometers_per_second": "22.9072196523",
                "kilometers_per_hour": "82465.9907482292",
                "miles_per_hour": "51241.1596401983"
            },
            "miss_distance": {
                "astronomical": "0.358607596",
                "lunar": "139.498354844",
                "kilometers": "53646932.52742052",
                "miles": "33334658.123902376"
            },
            "orbiting_body": "Earth"
        }
    ],
    "orbital_data": {
        "orbit_id": "7",
        "orbit_determination_date": "2017-04-06 09:02:26",
        "first_observation_date": "2008-10-26",
        "last_observation_date": "2008-10-27",
        "data_arc_in_days": 1,
        "observations_used": 25,
        "orbit_uncertainty": "8",
        "minimum_orbit_intersection": ".0115076",
        "jupiter_tisserand_invariant": "4.842",
        "epoch_osculation": "2454766.5",
        "eccentricity": ".4446485707048171",
        "semi_major_axis": "1.320918195594281",
        "inclination": "1.006983505680738",
        "ascending_node_longitude": "81.79835680095769",
        "orbital_period": "554.5137387410417",
        "perihelion_distance": ".7335738079052978",
        "perihelion_argument": "39.80341606793876",
        "aphelion_distance": "1.908262583283264",
        "perihelion_time": "2454826.800245087349",
        "mean_anomaly": "320.8520281558194",
        "mean_motion": ".6492174581956034",
        "equinox": "J2000",
        "orbit_class": {
            "orbit_class_type": "APO",
            "orbit_class_description": "Near-Earth asteroid orbits which cross the Earth’s orbit similar to that of 1862 Apollo",
            "orbit_class_range": "a (semi-major axis) > 1.0 AU; q (perihelion) < 1.017 AU"
        }
    },
    "is_sentry_object": false
}